{
  "type": "FeatureCollection",
  "features": [
    {
      "type": "Feature",
      "properties": {
        "norad_id": 66954,
        "name": "HULIANWANG DIGUI-115",
        "group": "last-30-days",
        "lat": -61.6214721004816,
        "lon": -25.4706581766809,
        "alt_km": 1032.5261478419925,
        "timestamp": "2025-12-26T21:25:51.735627+00:00",
        "meta_object_name": "HULIANWANG DIGUI-115",
        "meta_object_id": "2025-287B",
        "meta_epoch": "2025-12-24T22:10:56.489088",
        "meta_mean_motion": 13.63539042,
        "meta_eccentricity": 0.0003385,
        "meta_inclination": 86.5036,
        "meta_ra_of_asc_node": 341.7372,
        "meta_arg_of_pericenter": 109.9724,
        "meta_mean_anomaly": 250.1798,
        "meta_ephemeris_type": 0,
        "meta_classification_type": "U",
        "meta_norad_cat_id": 66954,
        "meta_element_set_no": 999,
        "meta_rev_at_epoch": 219,
        "meta_bstar": 8.442119e-06,
        "meta_mean_motion_dot": 2.3e-07,
        "meta_mean_motion_ddot": 0,
        "tle_line1": "1 66954U 25287B   25358.92426492  .00000023  00000+0  84421-5 0  9993",
        "tle_line2": "2 66954  86.5036 341.7372 0003385 109.9724 250.1798 13.63539042  2198"
      },
      "geometry": {
        "type": "Point",
        "coordinates": [
          -25.4706581766809,
          -61.6214721004816
        ]
      }
    },
    {
      "type": "Feature",
      "properties": {
        "norad_id": 66955,
        "name": "HULIANWANG DIGUI-116",
        "group": "last-30-days",
        "lat": -44.733367824663524,
        "lon": -22.485849592704014,
        "alt_km": 1028.0664851898791,
        "timestamp": "2025-12-26T21:25:51.735640+00:00",
        "meta_object_name": "HULIANWANG DIGUI-116",
        "meta_object_id": "2025-287C",
        "meta_epoch": "2025-12-24T23:52:55.515936",
        "meta_mean_motion": 13.64194122,
        "meta_eccentricity": 0.00016332,
        "meta_inclination": 86.4919,
        "meta_ra_of_asc_node": 341.6856,
        "meta_arg_of_pericenter": 94.3011,
        "meta_mean_anomaly": 265.8333,
        "meta_ephemeris_type": 0,
        "meta_classification_type": "U",
        "meta_norad_cat_id": 66955,
        "meta_element_set_no": 999,
        "meta_rev_at_epoch": 220,
        "meta_bstar": 0.0001652864,
        "meta_mean_motion_dot": 1.48e-06,
        "meta_mean_motion_ddot": 0,
        "tle_line1": "1 66955U 25287C   25358.99508699  .00000148  00000+0  16529-3 0  9991",
        "tle_line2": "2 66955  86.4919 341.6856 0001633  94.3011 265.8333 13.64194122  2201"
      },
      "geometry": {
        "type": "Point",
        "coordinates": [
          -22.485849592704014,
          -44.733367824663524
        ]
      }
    },
    {
      "type": "Feature",
      "properties": {
        "norad_id": 66956,
        "name": "HULIANWANG DIGUI-117",
        "group": "last-30-days",
        "lat": -28.411975278061018,
        "lon": -20.887035925170924,
        "alt_km": 1025.063057768367,
        "timestamp": "2025-12-26T21:25:51.735650+00:00",
        "meta_object_name": "HULIANWANG DIGUI-117",
        "meta_object_id": "2025-287D",
        "meta_epoch": "2025-12-24T22:03:29.281824",
        "meta_mean_motion": 13.64670553,
        "meta_eccentricity": 0.00010447,
        "meta_inclination": 86.4976,
        "meta_ra_of_asc_node": 341.7257,
        "meta_arg_of_pericenter": 103.5815,
        "meta_mean_anomaly": 256.5458,
        "meta_ephemeris_type": 0,
        "meta_classification_type": "U",
        "meta_norad_cat_id": 66956,
        "meta_element_set_no": 999,
        "meta_rev_at_epoch": 219,
        "meta_bstar": 9.025962e-06,
        "meta_mean_motion_dot": 2.4e-07,
        "meta_mean_motion_ddot": 0,
        "tle_line1": "1 66956U 25287D   25358.91908891  .00000024  00000+0  90260-5 0  9991",
        "tle_line2": "2 66956  86.4976 341.7257 0001044 103.5815 256.5458 13.64670553  2192"
      },
      "geometry": {
        "type": "Point",
        "coordinates": [
          -20.887035925170924,
          -28.411975278061018
        ]
      }
    },
    {
      "type": "Feature",
      "properties": {
        "norad_id": 66957,
        "name": "HULIANWANG DIGUI-118",
        "group": "last-30-days",
        "lat": 22.349162806729435,
        "lon": -17.557298536680893,
        "alt_km": 1010.8675821762463,
        "timestamp": "2025-12-26T21:25:51.735660+00:00",
        "meta_object_name": "HULIANWANG DIGUI-118",
        "meta_object_id": "2025-287E",
        "meta_epoch": "2025-12-21T00:50:13.849728",
        "meta_mean_motion": 13.6751011,
        "meta_eccentricity": 0.00054729,
        "meta_inclination": 86.4946,
        "meta_ra_of_asc_node": 343.1304,
        "meta_arg_of_pericenter": 170.9065,
        "meta_mean_anomaly": 189.2194,
        "meta_ephemeris_type": 0,
        "meta_classification_type": "U",
        "meta_norad_cat_id": 66957,
        "meta_element_set_no": 999,
        "meta_rev_at_epoch": 166,
        "meta_bstar": 0.00013223305,
        "meta_mean_motion_dot": 1.28e-06,
        "meta_mean_motion_ddot": 0,
        "tle_line1": "1 66957U 25287E   25355.03488252  .00000128  00000+0  13223-3 0  9993",
        "tle_line2": "2 66957  86.4946 343.1304 0005472 170.9065 189.2194 13.67510110  1668"
      },
      "geometry": {
        "type": "Point",
        "coordinates": [
          -17.557298536680893,
          22.349162806729435
        ]
      }
    },
    {
      "type": "Feature",
      "properties": {
        "norad_id": 66958,
        "name": "CZ-6A R/B",
        "group": "last-30-days",
        "lat": -64.84939963137514,
        "lon": -26.75533057760161,
        "alt_km": 962.5128303192678,
        "timestamp": "2025-12-26T21:25:51.735670+00:00",
        "meta_object_name": "CZ-6A R/B",
        "meta_object_id": "2025-287F",
        "meta_epoch": "2025-12-26T14:51:23.311584",
        "meta_mean_motion": 13.94921806,
        "meta_eccentricity": 0.01070747,
        "meta_inclination": 86.5066,
        "meta_ra_of_asc_node": 340.8243,
        "meta_arg_of_pericenter": 60.4306,
        "meta_mean_anomaly": 300.7488,
        "meta_ephemeris_type": 0,
        "meta_classification_type": "U",
        "meta_norad_cat_id": 66958,
        "meta_element_set_no": 999,
        "meta_rev_at_epoch": 247,
        "meta_bstar": 7.1213941e-05,
        "meta_mean_motion_dot": 1.19e-06,
        "meta_mean_motion_ddot": 0,
        "tle_line1": "1 66958U 25287F   25360.61901981  .00000119  00000+0  71214-4 0  9998",
        "tle_line2": "2 66958  86.5066 340.8243 0107074  60.4306 300.7488 13.94921806  2475"
      },
      "geometry": {
        "type": "Point",
        "coordinates": [
          -26.75533057760161,
          -64.84939963137514
        ]
      }
    },
    {
      "type": "Feature",
      "properties": {
        "norad_id": 66959,
        "name": "STARLINK-35887",
        "group": "last-30-days",
        "lat": 0.1616247424696709,
        "lon": -99.0559752466984,
        "alt_km": 392.4303868511406,
        "timestamp": "2025-12-26T21:25:51.735683+00:00",
        "meta_object_name": "STARLINK-35887",
        "meta_object_id": "2025-288A",
        "meta_epoch": "2025-12-26T14:00:04.000032",
        "meta_mean_motion": 15.59735356,
        "meta_eccentricity": 0.00010243,
        "meta_inclination": 43.0001,
        "meta_ra_of_asc_node": 82.9519,
        "meta_arg_of_pericenter": 283.6165,
        "meta_mean_anomaly": 316.4149,
        "meta_ephemeris_type": 0,
        "meta_classification_type": "U",
        "meta_norad_cat_id": 66959,
        "meta_element_set_no": 999,
        "meta_rev_at_epoch": 405,
        "meta_bstar": -0.026823237,
        "meta_mean_motion_dot": -0.01943418,
        "meta_mean_motion_ddot": 0,
        "tle_line1": "1 66959U 25288A   25360.58337963 -.01943418  00000+0 -26823-1 0  9993",
        "tle_line2": "2 66959  43.0001  82.9519 0001024 283.6165 316.4149 15.59735356  4053"
      },
      "geometry": {
        "type": "Point",
        "coordinates": [
          -99.0559752466984,
          0.1616247424696709
        ]
      }
    },
    {
      "type": "Feature",
      "properties": {
        "norad_id": 66960,
        "name": "STARLINK-35879",
        "group": "last-30-days",
        "lat": -1.147604598631727,
        "lon": -97.65562910934074,
        "alt_km": 392.4107839900007,
        "timestamp": "2025-12-26T21:25:51.735693+00:00",
        "meta_object_name": "STARLINK-35879",
        "meta_object_id": "2025-288B",
        "meta_epoch": "2025-12-26T14:00:04.000032",
        "meta_mean_motion": 15.59736589,
        "meta_eccentricity": 8.713e-05,
        "meta_inclination": 42.9998,
        "meta_ra_of_asc_node": 82.947,
        "meta_arg_of_pericenter": 285.837,
        "meta_mean_anomaly": 316.1132,
        "meta_ephemeris_type": 0,
        "meta_classification_type": "U",
        "meta_norad_cat_id": 66960,
        "meta_element_set_no": 999,
        "meta_rev_at_epoch": 405,
        "meta_bstar": -0.026843662,
        "meta_mean_motion_dot": -0.01944701,
        "meta_mean_motion_ddot": 0,
        "tle_line1": "1 66960U 25288B   25360.58337963 -.01944701  00000+0 -26844-1 0  9994",
        "tle_line2": "2 66960  42.9998  82.9470 0000871 285.8370 316.1132 15.59736589  4053"
      },
      "geometry": {
        "type": "Point",
        "coordinates": [
          -97.65562910934074,
          -1.147604598631727
        ]
      }
    }
  ]
}